[
    {
        "Altitude(m)": 604983.053070686,
        "Argument of Periapsis(deg)": 0.0,
        "Eccentricity": 0.0,
        "Inclination(deg)": 60.0,
        "Latitude(deg)": -0.0927326271462911,
        "Longitude(deg)": -54.91608353725268,
        "Mean Anomaly(deg)": -180.0,
        "RAAN(deg)": 225.0,
        "Satellite Name": "Test1 1001",
        "Satellite Number": 1001,
        "Semi-Major Axis(m)": 6980739.136638005,
        "Time(s)": 0
    },
    {
        "Altitude(m)": 605055.3331210265,
        "Argument of Periapsis(deg)": 0.00010418945913296404,
        "Eccentricity": 0.0,
        "Inclination(deg)": 60.0,
        "Latitude(deg)": -0.6331423193211304,
        "Longitude(deg)": -54.64795826136216,
        "Mean Anomaly(deg)": -179.37989385453818,
        "RAAN(deg)": 224.99957995086024,
        "Satellite Name": "Test1 1001",
        "Satellite Number": 1001,
        "Semi-Major Axis(m)": 6980739.136638005,
        "Time(s)": 10
    }
]